RANGE-A                 
1 43773U 18099R   26068.70590171  .00005536  00000+0  32166-3 0  9992
2 43773  97.4107 114.1927 0009674 340.4473  19.6386 15.12458640397457
STARLINK-3805           
1 52377U 22045AY  26068.63467707 -.00001820  00000+0 -96292-4 0  9993
2 52377  53.2172 189.5906 0001258 109.0464 251.0665 15.08844916215902
